[{"OBJECT_NAME":"STARLINK-30477","OBJECT_ID":"2023-146X","EPOCH":"2026-03-09T01:38:18.250656","MEAN_MOTION":15.27558432,"ECCENTRICITY":0.0001519,"INCLINATION":42.9994,"RA_OF_ASC_NODE":314.0913,"ARG_OF_PERICENTER":268.5622,"MEAN_ANOMALY":91.5056,"EPHEMERIS_TYPE":0,"CLASSIFICATION_TYPE":"U","NORAD_CAT_ID":57912,"ELEMENT_SET_NO":999,"REV_AT_EPOCH":13700,"BSTAR":-0.00024319354,"MEAN_MOTION_DOT":-6.944e-5,"MEAN_MOTION_DDOT":0},{"OBJECT_NAME":"WT 1B","OBJECT_ID":"2019-032G","EPOCH":"2026-03-09T21:42:21.881088","MEAN_MOTION":15.25021485,"ECCENTRICITY":0.0008099,"INCLINATION":44.9738,"RA_OF_ASC_NODE":242.0209,"ARG_OF_PERICENTER":49.7728,"MEAN_ANOMALY":310.3861,"EPHEMERIS_TYPE":0,"CLASSIFICATION_TYPE":"U","NORAD_CAT_ID":44316,"ELEMENT_SET_NO":999,"REV_AT_EPOCH":37191,"BSTAR":0.00065022477,"MEAN_MOTION_DOT":0.00016297,"MEAN_MOTION_DDOT":0}]
